{
    "links": {
        "self": "http://www.neowsapp.com/rest/v1/neo/3781989?api_key=iIulBulltgU6a56xZRHN4H3l9WmuAYTsLGpBGhQ2"
    },
    "id": "3781989",
    "neo_reference_id": "3781989",
    "name": "(2017 SY19)",
    "designation": "2017 SY19",
    "nasa_jpl_url": "http://ssd.jpl.nasa.gov/sbdb.cgi?sstr=3781989",
    "absolute_magnitude_h": 24.6,
    "estimated_diameter": {
        "kilometers": {
            "estimated_diameter_min": 0.0319561887,
            "estimated_diameter_max": 0.0714562102
        },
        "meters": {
            "estimated_diameter_min": 31.9561886721,
            "estimated_diameter_max": 71.4562101727
        },
        "miles": {
            "estimated_diameter_min": 0.0198566489,
            "estimated_diameter_max": 0.0444008168
        },
        "feet": {
            "estimated_diameter_min": 104.8431420431,
            "estimated_diameter_max": 234.436392583
        }
    },
    "is_potentially_hazardous_asteroid": false,
    "close_approach_data": [
        {
            "close_approach_date": "2017-09-28",
            "close_approach_date_full": "2017-Sep-28 23:45",
            "epoch_date_close_approach": 1506642300000,
            "relative_velocity": {
                "kilometers_per_second": "22.6232702644",
                "kilometers_per_hour": "81443.7729519606",
                "miles_per_hour": "50605.9932545113"
            },
            "miss_distance": {
                "astronomical": "0.0657786292",
                "lunar": "25.5878867588",
                "kilometers": "9840342.819839804",
                "miles": "6114505.4948611352"
            },
            "orbiting_body": "Earth"
        }
    ],
    "orbital_data": {
        "orbit_id": "1",
        "orbit_determination_date": "2017-09-30 12:12:06",
        "first_observation_date": "2017-09-27",
        "last_observation_date": "2017-09-30",
        "data_arc_in_days": 3,
        "observations_used": 31,
        "orbit_uncertainty": "8",
        "minimum_orbit_intersection": ".0575849",
        "jupiter_tisserand_invariant": "3.918",
        "epoch_osculation": "2458024.5",
        "eccentricity": ".3667312921222962",
        "semi_major_axis": "1.666185096879341",
        "inclination": "40.962108896346",
        "ascending_node_longitude": "6.869454050534431",
        "orbital_period": "785.5671156397181",
        "perihelion_distance": "1.055142883385867",
        "perihelion_argument": "9.609493157077592",
        "aphelion_distance": "2.277227310372815",
        "perihelion_time": "2458033.687241242304",
        "mean_anomaly": "355.7897844991435",
        "mean_motion": ".4582676550899638",
        "equinox": "J2000",
        "orbit_class": {
            "orbit_class_type": "AMO",
            "orbit_class_description": "Near-Earth asteroid orbits similar to that of 1221 Amor",
            "orbit_class_range": "1.017 AU < q (perihelion) < 1.3 AU"
        }
    },
    "is_sentry_object": false
}